STARLINK-31451          
1 59366U 24060U   26068.53869507  .00000600  00000+0  31326-4 0  9990
2 59366  43.0004 260.3726 0001177 278.2614  81.8104 15.27579905110042
REAL                    
1 64875U 25154G   26068.72233414  .00022901  00000+0  82904-3 0  9994
2 64875  97.4133 137.2581 0001853 118.5876 241.5550 15.28408058 34830
